KUIPER-00117            
1 65949U 25228C   26192.81791164  .00001482  00000+0  22338-3 0  9994
2 65949  51.8979 169.1795 0000623  70.0529 290.0501 14.79928694 41647
KUIPER-00121            
1 65950U 25228D   26190.96622467  .00001737  00000+0  25676-3 0  9990
2 65950  51.8986 172.3806 0000571  60.9068 299.1952 14.79936798 41446
KUIPER-00122            
1 65951U 25228E   26192.37356011  .00001099  00000+0  17317-3 0  9991
2 65951  51.8985 176.1305 0000519  70.5131 289.5888 14.79935262 41516
KUIPER-00123            
1 65952U 25228F   26192.33979452 -.00000079  00000+0  18586-4 0  9996
2 65952  51.8994 176.2915 0000609  49.6306 310.4709 14.79929593 41501
KUIPER-00124            
1 65953U 25228G   26192.95564588  .00000299  00000+0  68259-4 0  9990
2 65953  51.8977 166.0563 0000609  71.2911 288.8118 14.79933693 41702
KUIPER-00125            
1 65954U 25228H   26192.49914343  .00001615  00000+0  24082-3 0  9996
2 65954  51.8986 153.1198 0000747  74.9078 285.1967 14.79929404 41843
KUIPER-00126            
1 65955U 25228J   26191.36330656  .00001621  00000+0  24149-3 0  9992
2 65955  51.8986 178.1292 0000642  70.2230 289.8801 14.79939061 41397
KUIPER-00127            
1 65956U 25228K   26192.36746888  .00000490  00000+0  93284-4 0  9992
2 65956  51.9006 166.1590 0000657  70.5988 289.5045 14.79923711 41650
KUIPER-00128            
1 65957U 25228L   26192.89082558  .00000878  00000+0  14410-3 0  9991
2 65957  51.8993 163.9093 0000586  69.8353 290.2672 14.79934874 41721
KUIPER-00129            
1 65958U 25228M   26192.72739199  .00001254  00000+0  19338-3 0  9997
2 65958  51.9000 159.6135 0000595  71.2435 288.8592 14.79938591 41778
KUIPER-00130            
1 65959U 25228N   26192.48832208 -.00000989  00000+0 -10075-3 0  9991
2 65959  51.9035 163.2028 0000489  77.2655 282.8362 14.79931206 31999
KUIPER-00134            
1 65960U 25228P   26192.83252214  .00026690  00000+0  62729-3 0  9993
2 65960  51.8720  77.4051 0006730  43.3049 316.8468 15.41792725 42920
KUIPER-00135            
1 65961U 25228Q   26192.31954378  .00001161  00000+0  18126-3 0  9995
2 65961  51.9005 164.0039 0000572  75.5874 284.5152 14.79928084 41679
KUIPER-00136            
1 65962U 25228R   26192.28844909 -.00001071  00000+0 -11156-3 0  9998
2 65962  51.8989 161.5965 0000631  53.6601 306.4419 14.79927941 41706
KUIPER-00137            
1 65963U 25228S   26192.89883166  .00013075  00000+0  17374-2 0  9996
2 65963  51.9043 156.3884 0000653 285.9966  74.0925 14.80015186 41834
KUIPER-00138            
1 65964U 25228T   26192.26008297  .00001683  00000+0  24966-3 0  9990
2 65964  51.8964 156.6453 0000695  75.1412 284.9628 14.79934008 41778
