{"fetched_at":"2026-07-12T07:15:18.323Z","source":"https://celestrak.org/NORAD/elements/gp.php?GROUP=kuiper&FORMAT=JSON","constellation":"kuiper","records":[{"OBJECT_NAME":"KUIPER-00117","OBJECT_ID":"2025-228C","EPOCH":"2026-07-11T19:37:47.565696","CLASSIFICATION_TYPE":"U","MEAN_MOTION":14.79928694,"ECCENTRICITY":0.00006236,"INCLINATION":51.8979,"RA_OF_ASC_NODE":169.1795,"ARG_OF_PERICENTER":70.0529,"MEAN_ANOMALY":290.0501,"EPHEMERIS_TYPE":0,"NORAD_CAT_ID":65949,"ELEMENT_SET_NO":999,"REV_AT_EPOCH":4164,"BSTAR":0.0002233807,"MEAN_MOTION_DOT":0.00001482,"MEAN_MOTION_DDOT":0},{"OBJECT_NAME":"KUIPER-00121","OBJECT_ID":"2025-228D","EPOCH":"2026-07-09T23:11:21.811488","CLASSIFICATION_TYPE":"U","MEAN_MOTION":14.79936798,"ECCENTRICITY":0.00005711,"INCLINATION":51.8986,"RA_OF_ASC_NODE":172.3806,"ARG_OF_PERICENTER":60.9068,"MEAN_ANOMALY":299.1952,"EPHEMERIS_TYPE":0,"NORAD_CAT_ID":65950,"ELEMENT_SET_NO":999,"REV_AT_EPOCH":4144,"BSTAR":0.000256756,"MEAN_MOTION_DOT":0.00001737,"MEAN_MOTION_DDOT":0},{"OBJECT_NAME":"KUIPER-00122","OBJECT_ID":"2025-228E","EPOCH":"2026-07-11T08:57:55.593504","CLASSIFICATION_TYPE":"U","MEAN_MOTION":14.79935262,"ECCENTRICITY":0.0000519,"INCLINATION":51.8985,"RA_OF_ASC_NODE":176.1305,"ARG_OF_PERICENTER":70.5131,"MEAN_ANOMALY":289.5888,"EPHEMERIS_TYPE":0,"NORAD_CAT_ID":65951,"ELEMENT_SET_NO":999,"REV_AT_EPOCH":4151,"BSTAR":0.00017317171,"MEAN_MOTION_DOT":0.00001099,"MEAN_MOTION_DDOT":0},{"OBJECT_NAME":"KUIPER-00123","OBJECT_ID":"2025-228F","EPOCH":"2026-07-11T08:09:18.246528","CLASSIFICATION_TYPE":"U","MEAN_MOTION":14.79929593,"ECCENTRICITY":0.00006091,"INCLINATION":51.8994,"RA_OF_ASC_NODE":176.2915,"ARG_OF_PERICENTER":49.6306,"MEAN_ANOMALY":310.4709,"EPHEMERIS_TYPE":0,"NORAD_CAT_ID":65952,"ELEMENT_SET_NO":999,"REV_AT_EPOCH":4150,"BSTAR":0.000018586029,"MEAN_MOTION_DOT":-7.9e-7,"MEAN_MOTION_DDOT":0},{"OBJECT_NAME":"KUIPER-00124","OBJECT_ID":"2025-228G","EPOCH":"2026-07-11T22:56:07.804032","CLASSIFICATION_TYPE":"U","MEAN_MOTION":14.79933693,"ECCENTRICITY":0.00006092,"INCLINATION":51.8977,"RA_OF_ASC_NODE":166.0563,"ARG_OF_PERICENTER":71.2911,"MEAN_ANOMALY":288.8118,"EPHEMERIS_TYPE":0,"NORAD_CAT_ID":65953,"ELEMENT_SET_NO":999,"REV_AT_EPOCH":4170,"BSTAR":0.000068259083,"MEAN_MOTION_DOT":0.00000299,"MEAN_MOTION_DDOT":0},{"OBJECT_NAME":"KUIPER-00125","OBJECT_ID":"2025-228H","EPOCH":"2026-07-11T11:58:45.992352","CLASSIFICATION_TYPE":"U","MEAN_MOTION":14.79929404,"ECCENTRICITY":0.00007472,"INCLINATION":51.8986,"RA_OF_ASC_NODE":153.1198,"ARG_OF_PERICENTER":74.9078,"MEAN_ANOMALY":285.1967,"EPHEMERIS_TYPE":0,"NORAD_CAT_ID":65954,"ELEMENT_SET_NO":999,"REV_AT_EPOCH":4184,"BSTAR":0.0002408174,"MEAN_MOTION_DOT":0.00001615,"MEAN_MOTION_DDOT":0},{"OBJECT_NAME":"KUIPER-00126","OBJECT_ID":"2025-228J","EPOCH":"2026-07-10T08:43:09.686784","CLASSIFICATION_TYPE":"U","MEAN_MOTION":14.79939061,"ECCENTRICITY":0.00006429,"INCLINATION":51.8986,"RA_OF_ASC_NODE":178.1292,"ARG_OF_PERICENTER":70.223,"MEAN_ANOMALY":289.8801,"EPHEMERIS_TYPE":0,"NORAD_CAT_ID":65955,"ELEMENT_SET_NO":999,"REV_AT_EPOCH":4139,"BSTAR":0.00024148798,"MEAN_MOTION_DOT":0.00001621,"MEAN_MOTION_DDOT":0},{"OBJECT_NAME":"KUIPER-00127","OBJECT_ID":"2025-228K","EPOCH":"2026-07-11T08:49:09.311232","CLASSIFICATION_TYPE":"U","MEAN_MOTION":14.79923711,"ECCENTRICITY":0.00006573,"INCLINATION":51.9006,"RA_OF_ASC_NODE":166.159,"ARG_OF_PERICENTER":70.5988,"MEAN_ANOMALY":289.5045,"EPHEMERIS_TYPE":0,"NORAD_CAT_ID":65956,"ELEMENT_SET_NO":999,"REV_AT_EPOCH":4165,"BSTAR":0.000093284357,"MEAN_MOTION_DOT":0.0000049,"MEAN_MOTION_DDOT":0},{"OBJECT_NAME":"KUIPER-00128","OBJECT_ID":"2025-228L","EPOCH":"2026-07-11T21:22:47.330112","CLASSIFICATION_TYPE":"U","MEAN_MOTION":14.79934874,"ECCENTRICITY":0.00005861,"INCLINATION":51.8993,"RA_OF_ASC_NODE":163.9093,"ARG_OF_PERICENTER":69.8353,"MEAN_ANOMALY":290.2672,"EPHEMERIS_TYPE":0,"NORAD_CAT_ID":65957,"ELEMENT_SET_NO":999,"REV_AT_EPOCH":4172,"BSTAR":0.00014410086,"MEAN_MOTION_DOT":0.00000878,"MEAN_MOTION_DDOT":0},{"OBJECT_NAME":"KUIPER-00129","OBJECT_ID":"2025-228M","EPOCH":"2026-07-11T17:27:26.667936","CLASSIFICATION_TYPE":"U","MEAN_MOTION":14.79938591,"ECCENTRICITY":0.00005957,"INCLINATION":51.9,"RA_OF_ASC_NODE":159.6135,"ARG_OF_PERICENTER":71.2435,"MEAN_ANOMALY":288.8592,"EPHEMERIS_TYPE":0,"NORAD_CAT_ID":65958,"ELEMENT_SET_NO":999,"REV_AT_EPOCH":4177,"BSTAR":0.00019338432,"MEAN_MOTION_DOT":0.00001254,"MEAN_MOTION_DDOT":0},{"OBJECT_NAME":"KUIPER-00130","OBJECT_ID":"2025-228N","EPOCH":"2026-07-11T11:43:11.027712","CLASSIFICATION_TYPE":"U","MEAN_MOTION":14.79931206,"ECCENTRICITY":0.00004898,"INCLINATION":51.9035,"RA_OF_ASC_NODE":163.2028,"ARG_OF_PERICENTER":77.2655,"MEAN_ANOMALY":282.8362,"EPHEMERIS_TYPE":0,"NORAD_CAT_ID":65959,"ELEMENT_SET_NO":999,"REV_AT_EPOCH":3199,"BSTAR":-0.00010075076,"MEAN_MOTION_DOT":-0.00000989,"MEAN_MOTION_DDOT":0},{"OBJECT_NAME":"KUIPER-00134","OBJECT_ID":"2025-228P","EPOCH":"2026-07-11T19:58:49.912896","CLASSIFICATION_TYPE":"U","MEAN_MOTION":15.41792725,"ECCENTRICITY":0.00067307,"INCLINATION":51.872,"RA_OF_ASC_NODE":77.4051,"ARG_OF_PERICENTER":43.3049,"MEAN_ANOMALY":316.8468,"EPHEMERIS_TYPE":0,"NORAD_CAT_ID":65960,"ELEMENT_SET_NO":999,"REV_AT_EPOCH":4292,"BSTAR":0.00062728993,"MEAN_MOTION_DOT":0.0002669,"MEAN_MOTION_DDOT":0},{"OBJECT_NAME":"KUIPER-00135","OBJECT_ID":"2025-228Q","EPOCH":"2026-07-11T07:40:08.582592","CLASSIFICATION_TYPE":"U","MEAN_MOTION":14.79928084,"ECCENTRICITY":0.00005722,"INCLINATION":51.9005,"RA_OF_ASC_NODE":164.0039,"ARG_OF_PERICENTER":75.5874,"MEAN_ANOMALY":284.5152,"EPHEMERIS_TYPE":0,"NORAD_CAT_ID":65961,"ELEMENT_SET_NO":999,"REV_AT_EPOCH":4167,"BSTAR":0.00018126463,"MEAN_MOTION_DOT":0.00001161,"MEAN_MOTION_DDOT":0},{"OBJECT_NAME":"KUIPER-00136","OBJECT_ID":"2025-228R","EPOCH":"2026-07-11T06:55:22.001376","CLASSIFICATION_TYPE":"U","MEAN_MOTION":14.79927941,"ECCENTRICITY":0.00006312,"INCLINATION":51.8989,"RA_OF_ASC_NODE":161.5965,"ARG_OF_PERICENTER":53.6601,"MEAN_ANOMALY":306.4419,"EPHEMERIS_TYPE":0,"NORAD_CAT_ID":65962,"ELEMENT_SET_NO":999,"REV_AT_EPOCH":4170,"BSTAR":-0.00011156071,"MEAN_MOTION_DOT":-0.00001071,"MEAN_MOTION_DDOT":0},{"OBJECT_NAME":"KUIPER-00137","OBJECT_ID":"2025-228S","EPOCH":"2026-07-11T21:34:19.055424","CLASSIFICATION_TYPE":"U","MEAN_MOTION":14.80015186,"ECCENTRICITY":0.00006533,"INCLINATION":51.9043,"RA_OF_ASC_NODE":156.3884,"ARG_OF_PERICENTER":285.9966,"MEAN_ANOMALY":74.0925,"EPHEMERIS_TYPE":0,"NORAD_CAT_ID":65963,"ELEMENT_SET_NO":999,"REV_AT_EPOCH":4183,"BSTAR":0.0017374175,"MEAN_MOTION_DOT":0.00013075,"MEAN_MOTION_DDOT":0},{"OBJECT_NAME":"KUIPER-00138","OBJECT_ID":"2025-228T","EPOCH":"2026-07-11T06:14:31.168608","CLASSIFICATION_TYPE":"U","MEAN_MOTION":14.79934008,"ECCENTRICITY":0.00006955,"INCLINATION":51.8964,"RA_OF_ASC_NODE":156.6453,"ARG_OF_PERICENTER":75.1412,"MEAN_ANOMALY":284.9628,"EPHEMERIS_TYPE":0,"NORAD_CAT_ID":65964,"ELEMENT_SET_NO":999,"REV_AT_EPOCH":4177,"BSTAR":0.0002496608,"MEAN_MOTION_DOT":0.00001683,"MEAN_MOTION_DDOT":0}]}
